OBJECT_NAME,OBJECT_ID,EPOCH,MEAN_MOTION,ECCENTRICITY,INCLINATION,RA_OF_ASC_NODE,ARG_OF_PERICENTER,MEAN_ANOMALY,EPHEMERIS_TYPE,CLASSIFICATION_TYPE,NORAD_CAT_ID,ELEMENT_SET_NO,REV_AT_EPOCH,BSTAR,MEAN_MOTION_DOT,MEAN_MOTION_DDOT
RADUGA 1 [-],1975-123A,2024-01-20T08:00:49.872384,1.00251215,.0005737,5.0746,280.3543,242.6707,157.7628,0,U,8513,999,18600,0,-.132E-5,0
RADUGA 2 [-],1976-092A,2024-01-20T05:45:42.613056,1.00261190,.0028437,5.7440,282.5362,13.4917,333.8937,0,U,9416,999,12052,0,.27E-6,0
RADUGA 3 [-],1977-071A,2024-01-19T19:52:56.173152,1.00349652,.0008604,6.3726,285.4159,262.8955,289.2216,0,U,10159,999,16823,0,.42E-6,0
RADUGA 4 [-],1978-073A,2024-01-20T02:13:42.600288,1.00215000,.0009546,7.0129,289.2944,12.5658,309.7607,0,U,10987,999,11078,0,-.276E-5,0
RADUGA 5 [-],1979-035A,2024-01-20T05:37:42.475296,1.00295916,.00053,7.4899,292.3338,190.6834,153.3578,0,U,11343,999,12053,0,-.59E-6,0
RADUGA 6 [-],1980-016A,2024-01-19T21:15:28.319616,1.00204970,.0001625,7.8713,295.7106,233.9233,330.7863,0,U,11708,999,11334,0,.49E-6,0
RADUGA 7 [-],1980-081A,2024-01-20T03:15:38.984832,1.00160223,.0009679,8.0708,297.8423,285.6864,196.4193,0,U,12003,999,11449,0,-.43E-6,0
RADUGA 8 [-],1981-027A,2024-01-20T07:48:40.899168,1.00396475,.0080565,8.4091,298.3267,246.0569,344.4325,0,U,12351,999,11372,0,-.265E-5,0
RADUGA 9 [-],1981-069A,2024-01-20T18:17:06.146880,1.00187240,.0002475,8.6535,301.6230,163.9129,0.9655,0,U,12618,999,11952,0,-.34E-6,0
RADUGA 10 [-],1981-102A,2024-01-19T21:20:18.318624,1.00281621,.0004553,8.7533,302.7123,205.2628,356.3505,0,U,12897,999,10852,0,.9E-7,0
RADUGA 11 [-],1982-113A,2024-01-19T21:05:42.647712,0.97707383,.003945,10.9526,317.3937,269.5698,276.1512,0,U,13669,999,11293,0,-.17E-6,0
RADUGA 12 [-],1983-028A,2024-01-19T19:58:42.758976,1.00248578,.0000708,10.0170,313.0415,87.5238,92.6304,0,U,13974,999,16055,0,-.75E-6,0
RADUGA 13 [-],1983-088A,2024-01-20T07:52:59.374272,0.98173743,.0015856,11.2291,318.8798,47.5460,169.0760,0,U,14307,999,11031,0,-.88E-6,0
RADUGA 14 [-],1984-016A,2024-01-19T21:38:26.974176,1.00295038,.0003443,10.2818,317.0637,154.9396,40.4402,0,U,14725,999,10928,0,-.33E-6,0
RADUGA 15 [-],1984-063A,2024-01-20T00:51:33.509664,1.00234370,.0004671,10.4169,318.0678,180.0034,16.5552,0,U,15057,999,13228,0,.129E-5,0
RADUGA 16 [-],1985-070A,2024-01-20T04:27:42.561792,1.00308683,.0001588,10.9593,322.8692,217.7692,327.0818,0,U,15946,999,11341,0,-.249E-5,0
RADUGA 17 [-],1985-107A,2024-01-20T09:42:57.667104,1.00121321,.0013166,11.1047,324.3278,204.9273,173.7710,0,U,16250,999,14287,0,-.83E-6,0
RADUGA 18 [-],1986-007A,2024-01-19T23:15:26.498880,0.98811488,.0074197,11.9509,327.1330,179.3056,8.3613,0,U,16497,999,13717,0,.21E-6,0
RADUGA 19 [-],1986-082A,2024-01-19T21:05:42.647712,0.98458355,.0012612,12.4548,331.1886,168.6791,9.0962,0,U,17046,999,13429,0,.12E-6,0
RADUGA 20 [-],1987-028A,2024-01-20T16:55:53.986080,0.95961995,.0029835,14.5184,334.5933,153.1536,35.3310,0,U,17611,999,12986,0,-.158E-5,0
RADUGA 21 [-],1987-100A,2024-01-20T05:39:58.774752,1.00275988,.0002491,12.5695,331.7161,162.8479,19.2963,0,U,18631,999,13227,0,-.296E-5,0
RADUGA 22 [-],1988-095A,2024-01-20T02:30:40.853664,1.00279317,.0007472,12.6456,336.2500,164.4413,25.0191,0,U,19596,999,11283,0,.41E-6,0
RADUGA 23 [-],1989-030A,2024-01-20T08:04:20.397216,1.00189841,.0021105,12.8278,338.0726,181.1534,174.6385,0,U,19928,999,12603,0,-.257E-5,0
RADUGA-1 1 [-],1989-048A,2024-01-20T11:20:42.306432,0.98706899,.0021312,13.6436,341.2356,131.0784,236.9241,0,U,20083,999,12260,0,.27E-6,0
RADUGA 24 [-],1989-098A,2024-01-20T08:06:43.254432,1.00301712,.0001979,13.4551,340.2122,202.5688,160.0111,0,U,20367,999,12416,0,-.333E-5,0
RADUGA 25 [-],1990-016A,2024-01-20T13:12:31.249152,1.00305630,.0004956,13.2410,340.9586,175.9179,353.7291,0,U,20499,999,12409,0,.93E-6,0
RADUGA 26 [-],1990-112A,2024-01-20T11:22:12.531360,1.00228692,.0005938,13.6243,344.2208,111.4799,258.9743,0,U,21016,999,12145,0,-.7E-7,0
RADUGA-1 2 [-],1990-116A,2024-01-20T09:47:20.824224,1.00232676,.0007286,13.6646,344.2745,122.3460,253.0485,0,U,21038,999,3853,0,-.268E-5,0
RADUGA 27 [-],1991-014A,2024-01-20T08:42:20.297088,1.00269041,.0001915,14.1618,343.6043,126.2650,269.0366,0,U,21132,999,12050,0,-.356E-5,0
RADUGA 28 [-],1991-087A,2024-01-20T11:21:19.899072,1.00357439,.0006254,14.0218,347.5273,152.9061,210.5127,0,U,21821,999,11751,0,-.4E-7,0
RADUGA 29 [-],1993-013A,2024-01-20T08:12:36.635616,1.00216156,.0006177,14.3196,351.6826,145.2099,228.5907,0,U,22557,999,11287,0,-.375E-5,0
RADUGA 30 [-],1993-062A,2024-01-20T09:43:42.780000,1.00279539,.0001847,14.4131,353.6983,294.5694,57.2758,0,U,22836,999,3718,0,-.164E-5,0
RADUGA-1 3 [-],1994-008A,2024-01-20T11:23:12.679584,1.00328300,.0002363,14.5207,354.8311,146.8263,216.4423,0,U,22981,999,10967,0,-.59E-6,0
RADUGA 31 [-],1994-012A,2024-01-20T11:23:20.198976,1.00206906,.0004325,14.4849,354.8316,122.0211,241.5498,0,U,23010,999,10954,0,-.37E-6,0
RADUGA 32 [-],1994-087A,2024-01-20T11:26:20.648832,1.00279635,.0006474,14.5380,357.5763,224.3016,148.2443,0,U,23448,999,12407,0,-.154E-5,0
RADUGA-1 4 [-],1999-010A,2024-01-20T09:49:06.087072,1.00209470,.000243,15.3857,8.8852,248.6601,108.1662,0,U,25642,999,9113,0,-.309E-5,0
RADUGA-1 5 [-],2000-049A,2024-01-20T11:55:32.829600,1.00222927,.0003515,13.4594,14.3822,79.3758,300.0886,0,U,26477,999,8561,0,-.285E-5,0
RADUGA-1 6 [-],2001-045A,2024-01-20T16:26:06.292320,0.97744719,.0017469,13.7900,20.8566,183.2984,11.3946,0,U,26936,999,7999,0,-.113E-5,0
RADUGA-1 7 [-],2004-010A,2024-01-20T04:16:23.757600,1.00289840,.0003825,12.6487,27.4900,212.5254,320.8553,0,U,28194,999,7260,0,.86E-6,0
RADUGA-1M 1 [-],2007-058A,2024-01-20T12:17:47.981760,0.99401509,.0001328,8.1967,59.6767,285.3772,116.7649,0,U,32373,999,4366,0,-.27E-5,0
RADUGA-1 8 [-],2009-010A,2024-01-20T14:26:23.911296,0.99816891,.0012207,10.3755,49.4962,11.0367,160.3636,0,U,34264,999,5440,0,.18E-6,0
RADUGA-1M 2 [+],2010-002A,2024-01-20T17:32:42.867744,1.00273898,.0003259,1.3360,90.5060,187.1227,190.1055,0,U,36358,999,5120,0,-.181E-5,0
RADUGA-1M 3 [+],2013-062A,2024-01-20T11:13:48.773568,1.00270382,.0000806,3.7172,83.1082,66.7567,172.9024,0,U,39375,999,3729,0,.155E-5,0
